{
  "type": "FeatureCollection",
  "features": [
    {
      "type": "Feature",
      "properties": {
        "name": "Cypress Floorplan"
      },
      "geometry": {
        "type": "Polygon",
        "coordinates": [
          [
            [0, 0],
            [30, 0],
            [30, 20],
            [0, 20],
            [0, 0]
          ]
        ]
      }
    },
    {
      "type": "Feature",
      "properties": {
        "name": "Interior Wall"
      },
      "geometry": {
        "type": "LineString",
        "coordinates": [
          [10, 0],
          [10, 20]
        ]
      }
    }
  ]
}
